{
  "norad_id": 68325,
  "name": "STARLINK-36309",
  "history": [
    {
      "epoch": "2026-03-31T16:00:01.999584Z",
      "apogee_km": 328.3837940353742,
      "perigee_km": 327.6487996340411,
      "latitude_deg": -35.16549347061638,
      "longitude_deg": 35.32594724995681,
      "height_km": 339.54851113452895,
      "semi_major_axis_km": 6706.153296834707,
      "eccentricity": 5.48e-05,
      "inclination_deg": 53.1595,
      "raan_deg": 252.7165,
      "arg_perigee_deg": 25.9035,
      "mean_anomaly_deg": 199.8113,
      "mean_motion_rev_day": 15.80856855
    }
  ]
}